IRIDIUM 921 [-]         
1 24873U 97034E   24046.85267279  .00032043  00000+0  10393-2 0  9998
2 24873  86.3882 348.2862 0005819  40.7580 319.4104 15.31818861456415
IRIDIUM 26 [-]          
1 24903U 97043A   24046.78355696  .00000877  00000+0  29415-3 0  9991
2 24903  86.3982 315.1439 0001910  83.5575 276.5840 14.36209419386767
IRIDIUM 22 [-]          
1 24907U 97043E   24046.81455600  .00000839  00000+0  28746-3 0  9999
2 24907  86.3990 318.2701 0002164  83.5943 276.5500 14.35106429386856
DUMMY MASS 1 [-]        
1 24925U 97048A   24046.91682661  .00001043  00000+0  11603-3 0  9996
2 24925  86.3384   0.4652 0009214  77.3251 282.9003 14.86050580432745
DUMMY MASS 2 [-]        
1 24926U 97048B   24046.93362628  .00001024  00000+0  11448-3 0  9993
2 24926  86.3383   1.9777 0010091  85.1834 275.0543 14.85810029432538
IRIDIUM 29 [-]          
1 24944U 97051A   24046.92579620  .00000902  00000+0  30648-3 0  9995
2 24944  86.4006 348.1512 0002393  81.5676 278.5792 14.35559778383348
IRIDIUM 33 [-]          
1 24946U 97051C   24046.90956101  .00000654  00000+0  22623-3 0  9996
2 24946  86.3921 347.4198 0006324 216.7004 143.3759 14.34261174382881
IRIDIUM 28 [-]          
1 24948U 97051E   24046.87118670  .00000944  00000+0  31535-3 0  9999
2 24948  86.4011 345.9711 0001787  90.0381 270.1021 14.36508020383863
